{
  "type": "FeatureCollection",
  "features": [
    {
      "type": "Feature",
      "properties": {
        "norad_id": 32129,
        "name": "FENGYUN 1C DEB",
        "group": "fengyun-1c-debris",
        "lat": -40.73030754933684,
        "lon": 106.85687394193032,
        "alt_km": 805.7400418404068,
        "timestamp": "2025-12-06T18:50:10.454274+00:00",
        "meta_object_name": "FENGYUN 1C DEB",
        "meta_object_id": "1999-025CRX",
        "meta_epoch": "2025-12-04T06:47:11.103360",
        "meta_mean_motion": 14.28351458,
        "meta_eccentricity": 0.0068221,
        "meta_inclination": 99.06,
        "meta_ra_of_asc_node": 96.364,
        "meta_arg_of_pericenter": 58.9754,
        "meta_mean_anomaly": 1.6192,
        "meta_ephemeris_type": 0,
        "meta_classification_type": "U",
        "meta_norad_cat_id": 32129,
        "meta_element_set_no": 999,
        "meta_rev_at_epoch": 94106,
        "meta_bstar": 0.00548,
        "meta_mean_motion_dot": 0.00014014,
        "meta_mean_motion_ddot": 0,
        "tle_line1": "1 32129U 99025CRX 25338.28276740  .00014014  00000+0  54800-2 0  9997",
        "tle_line2": "2 32129  99.0600  96.3640 0068221  58.9754   1.6192 14.28351458941068"
      },
      "geometry": {
        "type": "Point",
        "coordinates": [
          106.85687394193032,
          -40.73030754933684
        ]
      }
    },
    {
      "type": "Feature",
      "properties": {
        "norad_id": 32130,
        "name": "FENGYUN 1C DEB",
        "group": "fengyun-1c-debris",
        "lat": -8.949174441238606,
        "lon": 148.49833858488725,
        "alt_km": 711.6250724058191,
        "timestamp": "2025-12-06T18:50:10.454284+00:00",
        "meta_object_name": "FENGYUN 1C DEB",
        "meta_object_id": "1999-025CRY",
        "meta_epoch": "2025-12-06T05:30:49.635360",
        "meta_mean_motion": 14.37521362,
        "meta_eccentricity": 0.00828184,
        "meta_inclination": 98.9032,
        "meta_ra_of_asc_node": 146.5093,
        "meta_arg_of_pericenter": 349.4278,
        "meta_mean_anomaly": 10.5163,
        "meta_ephemeris_type": 0,
        "meta_classification_type": "U",
        "meta_norad_cat_id": 32130,
        "meta_element_set_no": 999,
        "meta_rev_at_epoch": 96141,
        "meta_bstar": 0.00072697694,
        "meta_mean_motion_dot": 2.217e-05,
        "meta_mean_motion_ddot": 0,
        "tle_line1": "1 32130U 99025CRY 25340.22974115  .00002217  00000+0  72698-3 0  9995",
        "tle_line2": "2 32130  98.9032 146.5093 0082818 349.4278  10.5163 14.37521362961415"
      },
      "geometry": {
        "type": "Point",
        "coordinates": [
          148.49833858488725,
          -8.949174441238606
        ]
      }
    },
    {
      "type": "Feature",
      "properties": {
        "norad_id": 32133,
        "name": "FENGYUN 1C DEB",
        "group": "fengyun-1c-debris",
        "lat": 61.16370552652263,
        "lon": -33.33750359513565,
        "alt_km": 810.9739620144455,
        "timestamp": "2025-12-06T18:50:10.454294+00:00",
        "meta_object_name": "FENGYUN 1C DEB",
        "meta_object_id": "1999-025CSB",
        "meta_epoch": "2025-12-06T06:41:22.700544",
        "meta_mean_motion": 14.18063597,
        "meta_eccentricity": 0.00362792,
        "meta_inclination": 98.4317,
        "meta_ra_of_asc_node": 341.8104,
        "meta_arg_of_pericenter": 119.1318,
        "meta_mean_anomaly": 241.3498,
        "meta_ephemeris_type": 0,
        "meta_classification_type": "U",
        "meta_norad_cat_id": 32133,
        "meta_element_set_no": 999,
        "meta_rev_at_epoch": 94883,
        "meta_bstar": 0.00032636123,
        "meta_mean_motion_dot": 6.33e-06,
        "meta_mean_motion_ddot": 0,
        "tle_line1": "1 32133U 99025CSB 25340.27873496  .00000633  00000+0  32636-3 0  9991",
        "tle_line2": "2 32133  98.4317 341.8104 0036279 119.1318 241.3498 14.18063597948835"
      },
      "geometry": {
        "type": "Point",
        "coordinates": [
          -33.33750359513565,
          61.16370552652263
        ]
      }
    },
    {
      "type": "Feature",
      "properties": {
        "norad_id": 32134,
        "name": "FENGYUN 1C DEB",
        "group": "fengyun-1c-debris",
        "lat": -16.517565928699938,
        "lon": 161.5567696740658,
        "alt_km": 802.0708786844516,
        "timestamp": "2025-12-06T18:50:10.454303+00:00",
        "meta_object_name": "FENGYUN 1C DEB",
        "meta_object_id": "1999-025CSC",
        "meta_epoch": "2025-12-05T06:29:52.939104",
        "meta_mean_motion": 14.21509224,
        "meta_eccentricity": 0.02591795,
        "meta_inclination": 98.5942,
        "meta_ra_of_asc_node": 342.6512,
        "meta_arg_of_pericenter": 285.398,
        "meta_mean_anomaly": 90.241,
        "meta_ephemeris_type": 0,
        "meta_classification_type": "U",
        "meta_norad_cat_id": 32134,
        "meta_element_set_no": 999,
        "meta_rev_at_epoch": 95041,
        "meta_bstar": 0.0013851565,
        "meta_mean_motion_dot": 4.217e-05,
        "meta_mean_motion_ddot": 0,
        "tle_line1": "1 32134U 99025CSC 25339.27075161  .00004217  00000+0  13852-2 0  9993",
        "tle_line2": "2 32134  98.5942 342.6512 0259179 285.3980  90.2410 14.21509224950418"
      },
      "geometry": {
        "type": "Point",
        "coordinates": [
          161.5567696740658,
          -16.517565928699938
        ]
      }
    },
    {
      "type": "Feature",
      "properties": {
        "norad_id": 32136,
        "name": "FENGYUN 1C DEB",
        "group": "fengyun-1c-debris",
        "lat": 51.893134316517944,
        "lon": -31.54141285718322,
        "alt_km": 796.0742807487231,
        "timestamp": "2025-12-06T18:50:10.454313+00:00",
        "meta_object_name": "FENGYUN 1C DEB",
        "meta_object_id": "1999-025CSE",
        "meta_epoch": "2025-11-08T10:52:11.631360",
        "meta_mean_motion": 14.37825296,
        "meta_eccentricity": 0.00661033,
        "meta_inclination": 98.2658,
        "meta_ra_of_asc_node": 311.8847,
        "meta_arg_of_pericenter": 277.2954,
        "meta_mean_anomaly": 82.0724,
        "meta_ephemeris_type": 0,
        "meta_classification_type": "U",
        "meta_norad_cat_id": 32136,
        "meta_element_set_no": 999,
        "meta_rev_at_epoch": 64597,
        "meta_bstar": 0.00089904729,
        "meta_mean_motion_dot": 2.737e-05,
        "meta_mean_motion_ddot": 0,
        "tle_line1": "1 32136U 99025CSE 25312.45291240  .00002737  00000+0  89905-3 0  9992",
        "tle_line2": "2 32136  98.2658 311.8847 0066103 277.2954  82.0724 14.37825296645970"
      },
      "geometry": {
        "type": "Point",
        "coordinates": [
          -31.54141285718322,
          51.893134316517944
        ]
      }
    },
    {
      "type": "Feature",
      "properties": {
        "norad_id": 32137,
        "name": "FENGYUN 1C DEB",
        "group": "fengyun-1c-debris",
        "lat": 37.83460161334598,
        "lon": -65.67042938936918,
        "alt_km": 617.222466523639,
        "timestamp": "2025-12-06T18:50:10.454323+00:00",
        "meta_object_name": "FENGYUN 1C DEB",
        "meta_object_id": "1999-025CSF",
        "meta_epoch": "2025-12-01T02:00:45.065088",
        "meta_mean_motion": 14.80954252,
        "meta_eccentricity": 0.0188708,
        "meta_inclination": 98.4409,
        "meta_ra_of_asc_node": 101.7043,
        "meta_arg_of_pericenter": 71.3669,
        "meta_mean_anomaly": 290.7929,
        "meta_ephemeris_type": 0,
        "meta_classification_type": "U",
        "meta_norad_cat_id": 32137,
        "meta_element_set_no": 999,
        "meta_rev_at_epoch": 66558,
        "meta_bstar": 0.00088075161,
        "meta_mean_motion_dot": 9.212e-05,
        "meta_mean_motion_ddot": 0,
        "tle_line1": "1 32137U 99025CSF 25335.08385492  .00009212  00000+0  88075-3 0  9992",
        "tle_line2": "2 32137  98.4409 101.7043 0188708  71.3669 290.7929 14.80954252665580"
      },
      "geometry": {
        "type": "Point",
        "coordinates": [
          -65.67042938936918,
          37.83460161334598
        ]
      }
    },
    {
      "type": "Feature",
      "properties": {
        "norad_id": 32141,
        "name": "FENGYUN 1C DEB",
        "group": "fengyun-1c-debris",
        "lat": -15.025465516607616,
        "lon": -14.219972216214847,
        "alt_km": 912.4713259181744,
        "timestamp": "2025-12-06T18:50:10.454332+00:00",
        "meta_object_name": "FENGYUN 1C DEB",
        "meta_object_id": "1999-025CSK",
        "meta_epoch": "2025-11-20T23:04:46.058016",
        "meta_mean_motion": 14.03501767,
        "meta_eccentricity": 0.00731678,
        "meta_inclination": 98.7436,
        "meta_ra_of_asc_node": 328.1999,
        "meta_arg_of_pericenter": 269.2169,
        "meta_mean_anomaly": 90.0615,
        "meta_ephemeris_type": 0,
        "meta_classification_type": "U",
        "meta_norad_cat_id": 32141,
        "meta_element_set_no": 999,
        "meta_rev_at_epoch": 94638,
        "meta_bstar": 0.00056632309,
        "meta_mean_motion_dot": 8.66e-06,
        "meta_mean_motion_ddot": 0,
        "tle_line1": "1 32141U 99025CSK 25324.96164419  .00000866  00000+0  56632-3 0  9996",
        "tle_line2": "2 32141  98.7436 328.1999 0073167 269.2169  90.0615 14.03501767946385"
      },
      "geometry": {
        "type": "Point",
        "coordinates": [
          -14.219972216214847,
          -15.025465516607616
        ]
      }
    }
  ]
}